NORAD_CAT_ID,OBJECT_NAME,OBJECT_TYPE,EPOCH,MEAN_MOTION,ECCENTRICITY,INCLINATION,RA_OF_ASC_NODE,ARG_OF_PERICENTER,MEAN_ANOMALY,BSTAR,MEAN_MOTION_DOT,MEAN_MOTION_DDOT,TLE_LINE0,TLE_LINE1,TLE_LINE2,SEMIMAJOR_AXIS,PERIOD,APOGEE,PERIGEE,DECAYED
51115.0,STARLINK-3397,PAYLOAD,2023-10-09 07:07:10,15.08850712,0.0001734,53.2167,290.3339,95.4647,264.6543,0.00020131,2.918e-05,0.0,0 STARLINK-3397,1 51115U 22005M   23282.29664939  .00002918  00000-0  20131-3 0  9997,2 51115  53.2167 290.3339 0001734  95.4647 264.6543 15.08850712 95661,6917.848,95.437,540.912,538.513,0.0
51115.0,STARLINK-3397,PAYLOAD,2023-10-10 00:36:25,15.08841198,0.0001669,53.2146,287.0626,93.0652,267.0531,0.00016074,2.271e-05,0.0,0 STARLINK-3397,1 51115U 22005M   23283.02529421  .00002271  00000-0  16074-3 0  9998,2 51115  53.2146 287.0626 0001669  93.0652 267.0531 15.08841198 96884,6917.877,95.437,540.896,538.587,0.0
51115.0,STARLINK-3397,PAYLOAD,2023-10-10 10:08:43,15.08849004,0.0001715,53.2162,285.2775,102.0869,258.0315,0.00020306,2.946e-05,0.0,0 STARLINK-3397,1 51115U 22005M   23283.42272959  .00002946  00000-0  20306-3 0  9995,2 51115  53.2162 285.2775 0001715 102.0869 258.0315 15.08849004 95838,6917.853,95.437,540.904,538.531,0.0
51115.0,STARLINK-3397,PAYLOAD,2023-10-11 00:27:12,15.08833249,0.000177,53.2149,282.6021,97.0789,263.0405,-4.692e-05,-1.035e-05,0.0,0 STARLINK-3397,1 51115U 22005M   23284.01889915 -.00001035  00000-0 -46920-4 0  9998,2 51115  53.2149 282.6021 0001770  97.0789 263.0405 15.08833249 97037,6917.901,95.438,540.99,538.542,0.0
51115.0,STARLINK-3397,PAYLOAD,2023-10-11 09:59:31,15.08836252,0.0001758,53.2162,280.8182,96.4278,263.6914,2.0332e-05,3.5e-07,0.0,0 STARLINK-3397,1 51115U 22005M   23284.41633919  .00000035  00000-0  20332-4 0  9999,2 51115  53.2162 280.8182 0001758  96.4278 263.6914 15.08836252 95982,6917.892,95.438,540.973,538.541,0.0
51115.0,STARLINK-3397,PAYLOAD,2023-10-12 05:04:09,15.08838543,0.0001683,53.217,277.2486,96.0706,264.0478,9.9952e-05,1.303e-05,0.0,0 STARLINK-3397,1 51115U 22005M   23285.21122133  .00001303  00000-0  99952-4 0  9992,2 51115  53.2170 277.2486 0001683  96.0706 264.0478 15.08838543 97210,6917.885,95.438,540.914,538.586,0.0
51115.0,STARLINK-3397,PAYLOAD,2023-10-12 09:50:18,15.08847103,0.0001688,53.2164,276.3574,97.6423,262.4761,0.00025087,3.708e-05,0.0,0 STARLINK-3397,1 51115U 22005M   23285.40993812  .00003708  00000-0  25087-3 0  9991,2 51115  53.2164 276.3574 0001688  97.6423 262.4761 15.08847103 96138,6917.859,95.437,540.891,538.556,0.0
51115.0,STARLINK-3397,PAYLOAD,2023-10-12 16:11:51,15.08844496,0.0001726,53.2168,275.1669,92.7702,267.3488,0.00025553,3.782e-05,0.0,0 STARLINK-3397,1 51115U 22005M   23285.67490014  .00003782  00000-0  25553-3 0  9996,2 51115  53.2168 275.1669 0001726  92.7702 267.3488 15.08844496 96179,6917.867,95.437,540.926,538.538,0.0
51115.0,STARLINK-3397,PAYLOAD,2023-10-13 06:30:19,15.08839371,0.0001754,53.2172,272.4946,94.5595,265.5598,0.00018343,2.632e-05,0.0,0 STARLINK-3397,1 51115U 22005M   23286.27106394  .00002632  00000-0  18343-3 0  9990,2 51115  53.2172 272.4946 0001754  94.5595 265.5598 15.08839371 97374,6917.882,95.438,540.961,538.534,0.0
51115.0,STARLINK-3397,PAYLOAD,2023-10-13 16:02:38,15.08842245,0.0001772,53.2174,270.7104,97.4572,262.6621,0.00015714,2.214e-05,0.0,0 STARLINK-3397,1 51115U 22005M   23286.66850246  .00002214  00000-0  15714-3 0  9990,2 51115  53.2174 270.7104 0001772  97.4572 262.6621 15.08842245 96323,6917.874,95.437,540.964,538.513,0.0
51115.0,STARLINK-3397,PAYLOAD,2023-10-14 04:45:42,15.08855661,0.0001617,53.2163,268.3314,95.9342,264.1834,0.00024869,3.674e-05,0.0,0 STARLINK-3397,1 51115U 22005M   23287.19841433  .00003674  00000-0  24869-3 0  9999,2 51115  53.2163 268.3314 0001617  95.9342 264.1834 15.08855661 97514,6917.833,95.437,540.816,538.579,0.0
51115.0,STARLINK-3397,PAYLOAD,2023-10-14 07:56:29,15.08863298,0.0001667,53.2159,267.736,98.2705,261.8476,0.00044019,6.729e-05,0.0,0 STARLINK-3397,1 51115U 22005M   23287.33089127  .00006729  00000-0  44019-3 0  9992,2 51115  53.2159 267.7360 0001667  98.2705 261.8476 15.08863298 96427,6917.809,95.436,540.827,538.521,0.0
51115.0,STARLINK-3397,PAYLOAD,2023-10-14 15:53:25,15.08839967,0.0002262,53.2168,266.2461,82.2172,277.9077,-7.0502e-06,-4.01e-06,0.0,0 STARLINK-3397,1 51115U 22005M   23287.66210051 -.00000401  00000-0 -70502-5 0  9991,2 51115  53.2168 266.2461 0002262  82.2172 277.9077 15.08839967 97585,6917.88,95.438,541.31,538.181,0.0
51115.0,STARLINK-3397,PAYLOAD,2023-10-14 22:14:58,15.08839745,0.0002494,53.2155,265.0599,83.6581,276.4695,7.1034e-05,8.42e-06,0.0,0 STARLINK-3397,1 51115U 22005M   23287.92706321  .00000842  00000-0  71034-4 0  9997,2 51115  53.2155 265.0599 0002494  83.6581 276.4695 15.08839745 96512,6917.881,95.438,541.471,538.021,0.0
51115.0,STARLINK-3397,PAYLOAD,2023-10-15 04:36:31,15.08827375,0.0001442,53.2156,263.8693,89.3451,270.7706,-0.00017235,-3.029e-05,0.0,0 STARLINK-3397,1 51115U 22005M   23288.19202598 -.00003029  00000-0 -17235-3 0  9998,2 51115  53.2156 263.8693 0001442  89.3451 270.7706 15.08827375 97668,6917.919,95.438,540.782,538.786,0.0
51115.0,STARLINK-3397,PAYLOAD,2023-10-15 07:47:17,15.08832364,0.0001454,53.2156,263.2745,89.1066,271.0092,9.3717e-05,1.204e-05,0.0,0 STARLINK-3397,1 51115U 22005M   23288.32450535  .00001204  00000-0  93717-4 0  9990,2 51115  53.2156 263.2745 0001454  89.1066 271.0092 15.08832364 96578,6917.904,95.438,540.775,538.763,0.0
51115.0,STARLINK-3397,PAYLOAD,2023-10-15 15:44:13,15.08830346,0.0001441,53.2157,261.7872,86.6357,273.48,0.00071802,0.00011155,0.0,0 STARLINK-3397,1 51115U 22005M   23288.65571004  .00011155  00000-0  71802-3 0  9997,2 51115  53.2157 261.7872 0001441  86.6357 273.4800 15.08830346 96621,6917.91,95.438,540.772,538.778,0.0
51115.0,STARLINK-3397,PAYLOAD,2023-10-16 07:38:04,15.08867624,0.0001396,53.2156,258.8127,89.9892,270.126,0.0017169,0.00027163,0.0,0 STARLINK-3397,1 51115U 22005M   23289.31810551  .00027163  00000-0  17169-2 0  9995,2 51115  53.2156 258.8127 0001396  89.9892 270.1260 15.08867624 97836,6917.796,95.436,540.627,538.695,0.0
51115.0,STARLINK-3397,PAYLOAD,2023-10-16 21:56:32,15.08858832,0.0001326,53.216,256.136,96.6628,263.4515,0.0012694,0.00019983,0.0,0 STARLINK-3397,1 51115U 22005M   23289.91426468  .00019983  00000-0  12694-2 0  9990,2 51115  53.2160 256.1360 0001326  96.6628 263.4515 15.08858832 96812,6917.823,95.436,540.605,538.771,0.0
51115.0,STARLINK-3397,PAYLOAD,2023-10-17 04:18:04,15.08855322,6.1e-05,53.2162,254.9467,106.7862,253.3197,0.0012577,0.00019793,0.0,0 STARLINK-3397,1 51115U 22005M   23290.17922213  .00019793  00000-0  12577-2 0  9998,2 51115  53.2162 254.9467 0000610 106.7862 253.3197 15.08855322 97968,6917.834,95.437,540.121,539.277,0.0
51115.0,STARLINK-3397,PAYLOAD,2023-10-18 02:33:28,15.08849545,0.0002241,53.2172,250.7799,116.9991,243.123,0.0006405,9.923e-05,0.0,0 STARLINK-3397,1 51115U 22005M   23291.10658095  .00009923  00000-0  64050-3 0  9994,2 51115  53.2172 250.7799 0002241 116.9991 243.1230 15.08849545 96996,6917.851,95.437,541.267,538.166,0.0
51115.0,STARLINK-3397,PAYLOAD,2023-10-18 04:08:51,15.08847989,0.0001411,53.2165,250.4841,94.0898,266.0255,0.00067689,0.00010503,0.0,0 STARLINK-3397,1 51115U 22005M   23291.17282257  .00010503  00000-0  67689-3 0  9991,2 51115  53.2165 250.4841 0001411  94.0898 266.0255 15.08847989 98110,6917.856,95.437,540.697,538.745,0.0
51115.0,STARLINK-3397,PAYLOAD,2023-10-19 03:59:39,15.08851104,0.0001442,53.216,246.0275,91.7368,268.3789,0.00068414,0.0001062,0.0,0 STARLINK-3397,1 51115U 22005M   23292.16642373  .00010620  00000-0  68414-3 0  9997,2 51115  53.2160 246.0275 0001442  91.7368 268.3789 15.08851104 98264,6917.846,95.437,540.709,538.714,0.0
51115.0,STARLINK-3397,PAYLOAD,2023-10-19 21:28:53,15.08850099,0.000143,53.2164,242.7558,88.6497,271.4659,0.00048137,7.383e-05,0.0,0 STARLINK-3397,1 51115U 22005M   23292.89506235  .00007383  00000-0  48137-3 0  9995,2 51115  53.2164 242.7558 0001430  88.6497 271.4659 15.08850099 98375,6917.85,95.437,540.704,538.725,0.0
51115.0,STARLINK-3397,PAYLOAD,2023-10-20 07:01:11,15.08859965,0.0001339,53.216,240.9708,98.5733,261.5411,0.00051882,7.983e-05,0.0,0 STARLINK-3397,1 51115U 22005M   23293.29249628  .00007983  00000-0  51882-3 0  9997,2 51115  53.2160 240.9708 0001339  98.5733 261.5411 15.08859965 97320,6917.819,95.436,540.611,538.758,0.0
51115.0,STARLINK-3397,PAYLOAD,2023-10-21 02:05:50,15.0883007,0.0001835,53.2167,237.4002,121.0075,239.1098,-0.00016194,-2.864e-05,0.0,0 STARLINK-3397,1 51115U 22005M   23294.08738774 -.00002864  00000-0 -16194-3 0  9992,2 51115  53.2167 237.4002 0001835 121.0075 239.1098 15.08830070 98551,6917.911,95.438,541.045,538.506,0.0
51115.0,STARLINK-3397,PAYLOAD,2023-10-21 03:41:13,15.08828331,0.0001653,53.2175,237.1001,70.1594,289.9576,-0.00019613,-3.407e-05,0.0,0 STARLINK-3397,1 51115U 22005M   23294.15363145 -.00003407  00000-0 -19613-3 0  9999,2 51115  53.2175 237.1001 0001653  70.1594 289.9576 15.08828331 97453,6917.916,95.438,540.925,538.638,0.0
51115.0,STARLINK-3397,PAYLOAD,2023-10-21 19:35:04,15.08850097,0.0001402,53.2155,234.1297,113.8148,246.2991,0.0004226,6.446e-05,0.0,0 STARLINK-3397,1 51115U 22005M   23294.81602545  .00006446  00000-0  42260-3 0  9990,2 51115  53.2155 234.1297 0001402 113.8148 246.2991 15.08850097 98662,6917.85,95.437,540.684,538.745,0.0
51115.0,STARLINK-3397,PAYLOAD,2023-10-22 03:31:59,15.08883439,0.0001454,53.2157,232.6465,94.2157,265.9001,0.00123,0.00019365,0.0,0 STARLINK-3397,1 51115U 22005M   23295.14721859  .00019365  00000-0  12300-2 0  9992,2 51115  53.2157 232.6465 0001454  94.2157 265.9001 15.08883439 98715,6917.748,95.435,540.618,538.607,0.0
51115.0,STARLINK-3397,PAYLOAD,2023-10-22 13:04:19,15.08843384,0.0002599,53.2163,230.8622,73.1583,286.9694,-0.00019918,-3.458e-05,0.0,0 STARLINK-3397,1 51115U 22005M   23295.54466706 -.00003458  00000-0 -19918-3 0  9994,2 51115  53.2163 230.8622 0002599  73.1583 286.9694 15.08843384 97666,6917.87,95.437,541.533,537.937,0.0
